[{"COMMENT":"GENERATED VIA SPACETRACK.ORG API","ORIGINATOR":"18 SPCS","NORAD_CAT_ID":"43476","OBJECT_NAME":"GRACE-FO 1","OBJECT_TYPE":"PAYLOAD","CLASSIFICATION_TYPE":"U","INTLDES":"18047A","EPOCH":"2023-11-29 13:59:43","EPOCH_MICROSECONDS":"159488","MEAN_MOTION":"15.27456713","ECCENTRICITY":"0.0016391","INCLINATION":"88.9808","RA_OF_ASC_NODE":"326.66","ARG_OF_PERICENTER":"115.4846","MEAN_ANOMALY":"244.8101","EPHEMERIS_TYPE":"0","ELEMENT_SET_NO":"999","REV_AT_EPOCH":"30723","BSTAR":"0.00021222","MEAN_MOTION_DOT":"0.00005749","MEAN_MOTION_DDOT":"0","FILE":"4113103","TLE_LINE0":"0 GRACE-FO 1","TLE_LINE1":"1 43476U 18047A   23333.58313842  .00005749  00000-0  21222-3 0  9999","TLE_LINE2":"2 43476  88.9808 326.6600 0016391 115.4846 244.8101 15.27456713307235","OBJECT_ID":"2018-047A","OBJECT_NUMBER":"43476","SEMIMAJOR_AXIS":"6861.555","PERIOD":"94.274","APOGEE":"494.667","PERIGEE":"472.174","DECAYED":"0"},{"COMMENT":"GENERATED VIA SPACETRACK.ORG API","ORIGINATOR":"18 SPCS","NORAD_CAT_ID":"43476","OBJECT_NAME":"GRACE-FO 1","OBJECT_TYPE":"PAYLOAD","CLASSIFICATION_TYPE":"U","INTLDES":"18047A","EPOCH":"2023-11-29 12:25:22","EPOCH_MICROSECONDS":"736928","MEAN_MOTION":"15.2745525","ECCENTRICITY":"0.0016388","INCLINATION":"88.9808","RA_OF_ASC_NODE":"326.669","ARG_OF_PERICENTER":"115.6831","MEAN_ANOMALY":"244.6113","EPHEMERIS_TYPE":"0","ELEMENT_SET_NO":"999","REV_AT_EPOCH":"30722","BSTAR":"0.00020018","MEAN_MOTION_DOT":"0.00005424","MEAN_MOTION_DDOT":"0","FILE":"4112821","TLE_LINE0":"0 GRACE-FO 1","TLE_LINE1":"1 43476U 18047A   23333.51762427  .00005424  00000-0  20018-3 0  9991","TLE_LINE2":"2 43476  88.9808 326.6690 0016388 115.6831 244.6113 15.27455250307221","OBJECT_ID":"2018-047A","OBJECT_NUMBER":"43476","SEMIMAJOR_AXIS":"6861.560","PERIOD":"94.274","APOGEE":"494.669","PERIGEE":"472.180","DECAYED":"0"},{"COMMENT":"GENERATED VIA SPACETRACK.ORG API","ORIGINATOR":"18 SPCS","NORAD_CAT_ID":"43476","OBJECT_NAME":"GRACE-FO 1","OBJECT_TYPE":"PAYLOAD","CLASSIFICATION_TYPE":"U","INTLDES":"18047A","EPOCH":"2023-11-28 19:07:37","EPOCH_MICROSECONDS":"805376","MEAN_MOTION":"15.27447234","ECCENTRICITY":"0.001631","INCLINATION":"88.9807","RA_OF_ASC_NODE":"326.7679","ARG_OF_PERICENTER":"117.9528","MEAN_ANOMALY":"242.3375","EPHEMERIS_TYPE":"0","ELEMENT_SET_NO":"999","REV_AT_EPOCH":"30711","BSTAR":"0.00020334","MEAN_MOTION_DOT":"0.00005508","MEAN_MOTION_DDOT":"0","FILE":"4112264","TLE_LINE0":"0 GRACE-FO 1","TLE_LINE1":"1 43476U 18047A   23332.79696534  .00005508  00000-0  20334-3 0  9999","TLE_LINE2":"2 43476  88.9807 326.7679 0016310 117.9528 242.3375 15.27447234307117","OBJECT_ID":"2018-047A","OBJECT_NUMBER":"43476","SEMIMAJOR_AXIS":"6861.584","PERIOD":"94.275","APOGEE":"494.640","PERIGEE":"472.257","DECAYED":"0"},{"COMMENT":"GENERATED VIA SPACETRACK.ORG API","ORIGINATOR":"18 SPCS","NORAD_CAT_ID":"43476","OBJECT_NAME":"GRACE-FO 1","OBJECT_TYPE":"PAYLOAD","CLASSIFICATION_TYPE":"U","INTLDES":"18047A","EPOCH":"2023-11-28 12:50:15","EPOCH_MICROSECONDS":"922464","MEAN_MOTION":"15.2744437","ECCENTRICITY":"0.0016287","INCLINATION":"88.9806","RA_OF_ASC_NODE":"326.8039","ARG_OF_PERICENTER":"118.8154","MEAN_ANOMALY":"241.4733","EPHEMERIS_TYPE":"0","ELEMENT_SET_NO":"999","REV_AT_EPOCH":"30707","BSTAR":"0.00019847","MEAN_MOTION_DOT":"0.00005376","MEAN_MOTION_DDOT":"0","FILE":"4111489","TLE_LINE0":"0 GRACE-FO 1","TLE_LINE1":"1 43476U 18047A   23332.53490651  .00005376  00000-0  19847-3 0  9993","TLE_LINE2":"2 43476  88.9806 326.8039 0016287 118.8154 241.4733 15.27444370307076","OBJECT_ID":"2018-047A","OBJECT_NUMBER":"43476","SEMIMAJOR_AXIS":"6861.592","PERIOD":"94.275","APOGEE":"494.633","PERIGEE":"472.282","DECAYED":"0"},{"COMMENT":"GENERATED VIA SPACETRACK.ORG API","ORIGINATOR":"18 SPCS","NORAD_CAT_ID":"43476","OBJECT_NAME":"GRACE-FO 1","OBJECT_TYPE":"PAYLOAD","CLASSIFICATION_TYPE":"U","INTLDES":"18047A","EPOCH":"2023-11-28 11:15:55","EPOCH_MICROSECONDS":"445472","MEAN_MOTION":"15.27443525","ECCENTRICITY":"0.0016283","INCLINATION":"88.9806","RA_OF_ASC_NODE":"326.8129","ARG_OF_PERICENTER":"119.0274","MEAN_ANOMALY":"241.2609","EPHEMERIS_TYPE":"0","ELEMENT_SET_NO":"999","REV_AT_EPOCH":"30706","BSTAR":"0.0001946","MEAN_MOTION_DOT":"0.00005271","MEAN_MOTION_DDOT":"0","FILE":"4110927","TLE_LINE0":"0 GRACE-FO 1","TLE_LINE1":"1 43476U 18047A   23332.46939173  .00005271  00000-0  19460-3 0  9997","TLE_LINE2":"2 43476  88.9806 326.8129 0016283 119.0274 241.2609 15.27443525307068","OBJECT_ID":"2018-047A","OBJECT_NUMBER":"43476","SEMIMAJOR_AXIS":"6861.595","PERIOD":"94.275","APOGEE":"494.633","PERIGEE":"472.287","DECAYED":"0"},{"COMMENT":"GENERATED VIA SPACETRACK.ORG API","ORIGINATOR":"18 SPCS","NORAD_CAT_ID":"43476","OBJECT_NAME":"GRACE-FO 1","OBJECT_TYPE":"PAYLOAD","CLASSIFICATION_TYPE":"U","INTLDES":"18047A","EPOCH":"2023-11-27 22:41:11","EPOCH_MICROSECONDS":"539680","MEAN_MOTION":"15.27437648","ECCENTRICITY":"0.0016209","INCLINATION":"88.9806","RA_OF_ASC_NODE":"326.8849","ARG_OF_PERICENTER":"120.6266","MEAN_ANOMALY":"239.6584","EPHEMERIS_TYPE":"0","ELEMENT_SET_NO":"999","REV_AT_EPOCH":"30698","BSTAR":"0.00019124","MEAN_MOTION_DOT":"0.0000518","MEAN_MOTION_DDOT":"0","FILE":"4110225","TLE_LINE0":"0 GRACE-FO 1","TLE_LINE1":"1 43476U 18047A   23331.94527245  .00005180  00000-0  19124-3 0  9998","TLE_LINE2":"2 43476  88.9806 326.8849 0016209 120.6266 239.6584 15.27437648306986","OBJECT_ID":"2018-047A","OBJECT_NUMBER":"43476","SEMIMAJOR_AXIS":"6861.612","PERIOD":"94.276","APOGEE":"494.599","PERIGEE":"472.355","DECAYED":"0"},{"COMMENT":"GENERATED VIA SPACETRACK.ORG API","ORIGINATOR":"18 SPCS","NORAD_CAT_ID":"43476","OBJECT_NAME":"GRACE-FO 1","OBJECT_TYPE":"PAYLOAD","CLASSIFICATION_TYPE":"U","INTLDES":"18047A","EPOCH":"2023-11-27 13:15:08","EPOCH_MICROSECONDS":"497152","MEAN_MOTION":"15.27433298","ECCENTRICITY":"0.0016174","INCLINATION":"88.9805","RA_OF_ASC_NODE":"326.9388","ARG_OF_PERICENTER":"121.9418","MEAN_ANOMALY":"238.3407","EPHEMERIS_TYPE":"0","ELEMENT_SET_NO":"999","REV_AT_EPOCH":"30692","BSTAR":"0.00018805","MEAN_MOTION_DOT":"0.00005093","MEAN_MOTION_DDOT":"0","FILE":"4109692","TLE_LINE0":"0 GRACE-FO 1","TLE_LINE1":"1 43476U 18047A   23331.55218168  .00005093  00000-0  18805-3 0  9994","TLE_LINE2":"2 43476  88.9805 326.9388 0016174 121.9418 238.3407 15.27433298306929","OBJECT_ID":"2018-047A","OBJECT_NUMBER":"43476","SEMIMAJOR_AXIS":"6861.625","PERIOD":"94.276","APOGEE":"494.588","PERIGEE":"472.392","DECAYED":"0"},{"COMMENT":"GENERATED VIA SPACETRACK.ORG API","ORIGINATOR":"18 SPCS","NORAD_CAT_ID":"43476","OBJECT_NAME":"GRACE-FO 1","OBJECT_TYPE":"PAYLOAD","CLASSIFICATION_TYPE":"U","INTLDES":"18047A","EPOCH":"2023-11-27 03:49:05","EPOCH_MICROSECONDS":"378592","MEAN_MOTION":"15.27427842","ECCENTRICITY":"0.0016117","INCLINATION":"88.9805","RA_OF_ASC_NODE":"326.9928","ARG_OF_PERICENTER":"123.1287","MEAN_ANOMALY":"237.1512","EPHEMERIS_TYPE":"0","ELEMENT_SET_NO":"999","REV_AT_EPOCH":"30686","BSTAR":"0.0001715","MEAN_MOTION_DOT":"0.00004647","MEAN_MOTION_DDOT":"0","FILE":"4108707","TLE_LINE0":"0 GRACE-FO 1","TLE_LINE1":"1 43476U 18047A   23331.15909003  .00004647  00000-0  17150-3 0  9991","TLE_LINE2":"2 43476  88.9805 326.9928 0016117 123.1287 237.1512 15.27427842306869","OBJECT_ID":"2018-047A","OBJECT_NUMBER":"43476","SEMIMAJOR_AXIS":"6861.642","PERIOD":"94.276","APOGEE":"494.566","PERIGEE":"472.448","DECAYED":"0"},{"COMMENT":"GENERATED VIA SPACETRACK.ORG API","ORIGINATOR":"18 SPCS","NORAD_CAT_ID":"43476","OBJECT_NAME":"GRACE-FO 1","OBJECT_TYPE":"PAYLOAD","CLASSIFICATION_TYPE":"U","INTLDES":"18047A","EPOCH":"2023-11-26 21:31:43","EPOCH_MICROSECONDS":"220064","MEAN_MOTION":"15.27425192","ECCENTRICITY":"0.0016084","INCLINATION":"88.9806","RA_OF_ASC_NODE":"327.0288","ARG_OF_PERICENTER":"124.0084","MEAN_ANOMALY":"236.2696","EPHEMERIS_TYPE":"0","ELEMENT_SET_NO":"999","REV_AT_EPOCH":"30682","BSTAR":"0.00017476","MEAN_MOTION_DOT":"0.00004734","MEAN_MOTION_DDOT":"0","FILE":"4108592","TLE_LINE0":"0 GRACE-FO 1","TLE_LINE1":"1 43476U 18047A   23330.89702801  .00004734  00000-0  17476-3 0  9996","TLE_LINE2":"2 43476  88.9806 327.0288 0016084 124.0084 236.2696 15.27425192306824","OBJECT_ID":"2018-047A","OBJECT_NUMBER":"43476","SEMIMAJOR_AXIS":"6861.650","PERIOD":"94.276","APOGEE":"494.551","PERIGEE":"472.478","DECAYED":"0"},{"COMMENT":"GENERATED VIA SPACETRACK.ORG API","ORIGINATOR":"18 SPCS","NORAD_CAT_ID":"43476","OBJECT_NAME":"GRACE-FO 1","OBJECT_TYPE":"PAYLOAD","CLASSIFICATION_TYPE":"U","INTLDES":"18047A","EPOCH":"2023-11-26 13:40:00","EPOCH_MICROSECONDS":"478272","MEAN_MOTION":"15.27422224","ECCENTRICITY":"0.0016045","INCLINATION":"88.9805","RA_OF_ASC_NODE":"327.0737","ARG_OF_PERICENTER":"125.0773","MEAN_ANOMALY":"235.1984","EPHEMERIS_TYPE":"0","ELEMENT_SET_NO":"999","REV_AT_EPOCH":"30677","BSTAR":"0.00018874","MEAN_MOTION_DOT":"0.0000511","MEAN_MOTION_DDOT":"0","FILE":"4107973","TLE_LINE0":"0 GRACE-FO 1","TLE_LINE1":"1 43476U 18047A   23330.56944998  .00005110  00000-0  18874-3 0  9997","TLE_LINE2":"2 43476  88.9805 327.0737 0016045 125.0773 235.1984 15.27422224306770","OBJECT_ID":"2018-047A","OBJECT_NUMBER":"43476","SEMIMAJOR_AXIS":"6861.659","PERIOD":"94.276","APOGEE":"494.533","PERIGEE":"472.514","DECAYED":"0"}]